{
  "type": "FeatureCollection",
  "features": [
    {
      "type": "Feature",
      "properties": {
        "norad_id": 29904,
        "name": "FENGYUN 1C DEB",
        "group": "fengyun-1c-debris",
        "lat": -0.4008283256445095,
        "lon": 18.15217964879894,
        "alt_km": 609.6716905637386,
        "timestamp": "2025-12-06T14:35:37.398255+00:00",
        "meta_object_name": "FENGYUN 1C DEB",
        "meta_object_id": "1999-025HA",
        "meta_epoch": "2025-12-06T01:17:45.173184",
        "meta_mean_motion": 14.44439493,
        "meta_eccentricity": 0.02081527,
        "meta_inclination": 99.0421,
        "meta_ra_of_asc_node": 17.499,
        "meta_arg_of_pericenter": 338.5959,
        "meta_mean_anomaly": 20.6619,
        "meta_ephemeris_type": 0,
        "meta_classification_type": "U",
        "meta_norad_cat_id": 29904,
        "meta_element_set_no": 999,
        "meta_rev_at_epoch": 98967,
        "meta_bstar": 0.00076262522,
        "meta_mean_motion_dot": 3.37e-05,
        "meta_mean_motion_ddot": 0,
        "tle_line1": "1 29904U 99025HA  25340.05399506  .00003370  00000+0  76263-3 0  9999",
        "tle_line2": "2 29904  99.0421  17.4990 0208152 338.5959  20.6619 14.44439493989679"
      },
      "geometry": {
        "type": "Point",
        "coordinates": [
          18.15217964879894,
          -0.4008283256445095
        ]
      }
    },
    {
      "type": "Feature",
      "properties": {
        "norad_id": 29906,
        "name": "FENGYUN 1C DEB",
        "group": "fengyun-1c-debris",
        "lat": 18.487255764689053,
        "lon": -93.30650048334796,
        "alt_km": 701.2182726051333,
        "timestamp": "2025-12-06T14:35:37.398265+00:00",
        "meta_object_name": "FENGYUN 1C DEB",
        "meta_object_id": "1999-025HC",
        "meta_epoch": "2025-12-06T05:34:08.128128",
        "meta_mean_motion": 14.4944739,
        "meta_eccentricity": 0.00374489,
        "meta_inclination": 98.7066,
        "meta_ra_of_asc_node": 83.3686,
        "meta_arg_of_pericenter": 168.3406,
        "meta_mean_anomaly": 191.8663,
        "meta_ephemeris_type": 0,
        "meta_classification_type": "U",
        "meta_norad_cat_id": 29906,
        "meta_element_set_no": 999,
        "meta_rev_at_epoch": 98063,
        "meta_bstar": 0.0044028493,
        "meta_mean_motion_dot": 0.00016997,
        "meta_mean_motion_ddot": 0,
        "tle_line1": "1 29906U 99025HC  25340.23203852  .00016997  00000+0  44028-2 0  9991",
        "tle_line2": "2 29906  98.7066  83.3686 0037448 168.3406 191.8663 14.49447390980637"
      },
      "geometry": {
        "type": "Point",
        "coordinates": [
          -93.30650048334796,
          18.487255764689053
        ]
      }
    },
    {
      "type": "Feature",
      "properties": {
        "norad_id": 29907,
        "name": "FENGYUN 1C DEB",
        "group": "fengyun-1c-debris",
        "lat": 62.16250510977787,
        "lon": 29.495657064753,
        "alt_km": 903.3152924835422,
        "timestamp": "2025-12-06T14:35:37.398275+00:00",
        "meta_object_name": "FENGYUN 1C DEB",
        "meta_object_id": "1999-025HD",
        "meta_epoch": "2025-12-06T04:13:48.515808",
        "meta_mean_motion": 14.11577933,
        "meta_eccentricity": 0.00834526,
        "meta_inclination": 99.1119,
        "meta_ra_of_asc_node": 46.75,
        "meta_arg_of_pericenter": 267.9183,
        "meta_mean_anomaly": 122.1953,
        "meta_ephemeris_type": 0,
        "meta_classification_type": "U",
        "meta_norad_cat_id": 29907,
        "meta_element_set_no": 999,
        "meta_rev_at_epoch": 96506,
        "meta_bstar": 0.0025877494,
        "meta_mean_motion_dot": 4.812e-05,
        "meta_mean_motion_ddot": 0,
        "tle_line1": "1 29907U 99025HD  25340.17625597  .00004812  00000+0  25877-2 0  9993",
        "tle_line2": "2 29907  99.1119  46.7500 0083452 267.9183 122.1953 14.11577933965069"
      },
      "geometry": {
        "type": "Point",
        "coordinates": [
          29.495657064753,
          62.16250510977787
        ]
      }
    },
    {
      "type": "Feature",
      "properties": {
        "norad_id": 29909,
        "name": "FENGYUN 1C DEB",
        "group": "fengyun-1c-debris",
        "lat": 62.09421510943316,
        "lon": -79.1159485919194,
        "alt_km": 699.3977638340075,
        "timestamp": "2025-12-06T14:35:37.398285+00:00",
        "meta_object_name": "FENGYUN 1C DEB",
        "meta_object_id": "1999-025HF",
        "meta_epoch": "2025-12-06T05:57:04.207104",
        "meta_mean_motion": 14.54951207,
        "meta_eccentricity": 0.00384954,
        "meta_inclination": 98.6357,
        "meta_ra_of_asc_node": 83.8363,
        "meta_arg_of_pericenter": 35.9406,
        "meta_mean_anomaly": 355.13,
        "meta_ephemeris_type": 0,
        "meta_classification_type": "U",
        "meta_norad_cat_id": 29909,
        "meta_element_set_no": 999,
        "meta_rev_at_epoch": 98311,
        "meta_bstar": 0.0037775204,
        "meta_mean_motion_dot": 0.00016399,
        "meta_mean_motion_ddot": 0,
        "tle_line1": "1 29909U 99025HF  25340.24796536  .00016399  00000+0  37775-2 0  9998",
        "tle_line2": "2 29909  98.6357  83.8363 0038495  35.9406 355.1300 14.54951207983113"
      },
      "geometry": {
        "type": "Point",
        "coordinates": [
          -79.1159485919194,
          62.09421510943316
        ]
      }
    },
    {
      "type": "Feature",
      "properties": {
        "norad_id": 29911,
        "name": "FENGYUN 1C DEB",
        "group": "fengyun-1c-debris",
        "lat": -20.16745424785399,
        "lon": 27.055101945543278,
        "alt_km": 853.9419804819136,
        "timestamp": "2025-12-06T14:35:37.398295+00:00",
        "meta_object_name": "FENGYUN 1C DEB",
        "meta_object_id": "1999-025HH",
        "meta_epoch": "2025-12-05T14:01:54.187680",
        "meta_mean_motion": 14.18822172,
        "meta_eccentricity": 0.00273149,
        "meta_inclination": 98.716,
        "meta_ra_of_asc_node": 22.8193,
        "meta_arg_of_pericenter": 170.7035,
        "meta_mean_anomaly": 344.5159,
        "meta_ephemeris_type": 0,
        "meta_classification_type": "U",
        "meta_norad_cat_id": 29911,
        "meta_element_set_no": 999,
        "meta_rev_at_epoch": 97329,
        "meta_bstar": 0.0014303748,
        "meta_mean_motion_dot": 2.943e-05,
        "meta_mean_motion_ddot": 0,
        "tle_line1": "1 29911U 99025HH  25339.58465495  .00002943  00000+0  14304-2 0  9996",
        "tle_line2": "2 29911  98.7160  22.8193 0027314 170.7035 344.5159 14.18822172973297"
      },
      "geometry": {
        "type": "Point",
        "coordinates": [
          27.055101945543278,
          -20.16745424785399
        ]
      }
    },
    {
      "type": "Feature",
      "properties": {
        "norad_id": 29912,
        "name": "FENGYUN 1C DEB",
        "group": "fengyun-1c-debris",
        "lat": 52.79103381513804,
        "lon": -90.41007695390577,
        "alt_km": 754.6172293381096,
        "timestamp": "2025-12-06T14:35:37.398305+00:00",
        "meta_object_name": "FENGYUN 1C DEB",
        "meta_object_id": "1999-025HJ",
        "meta_epoch": "2025-12-06T00:56:02.554080",
        "meta_mean_motion": 14.42825522,
        "meta_eccentricity": 0.00426376,
        "meta_inclination": 98.7394,
        "meta_ra_of_asc_node": 77.3181,
        "meta_arg_of_pericenter": 238.2949,
        "meta_mean_anomaly": 173.8171,
        "meta_ephemeris_type": 0,
        "meta_classification_type": "U",
        "meta_norad_cat_id": 29912,
        "meta_element_set_no": 999,
        "meta_rev_at_epoch": 97942,
        "meta_bstar": 0.0036270367,
        "meta_mean_motion_dot": 0.00012208,
        "meta_mean_motion_ddot": 0,
        "tle_line1": "1 29912U 99025HJ  25340.03891845  .00012208  00000+0  36270-2 0  9992",
        "tle_line2": "2 29912  98.7394  77.3181 0042637 238.2949 173.8171 14.42825522979425"
      },
      "geometry": {
        "type": "Point",
        "coordinates": [
          -90.41007695390577,
          52.79103381513804
        ]
      }
    },
    {
      "type": "Feature",
      "properties": {
        "norad_id": 29913,
        "name": "FENGYUN 1C DEB",
        "group": "fengyun-1c-debris",
        "lat": -58.965205112710045,
        "lon": -5.475147158192722,
        "alt_km": 831.3613853849192,
        "timestamp": "2025-12-06T14:35:37.398316+00:00",
        "meta_object_name": "FENGYUN 1C DEB",
        "meta_object_id": "1999-025HK",
        "meta_epoch": "2025-12-05T23:47:02.494176",
        "meta_mean_motion": 14.07370617,
        "meta_eccentricity": 0.00619549,
        "meta_inclination": 98.7873,
        "meta_ra_of_asc_node": 339.0283,
        "meta_arg_of_pericenter": 290.7499,
        "meta_mean_anomaly": 124.3888,
        "meta_ephemeris_type": 0,
        "meta_classification_type": "U",
        "meta_norad_cat_id": 29913,
        "meta_element_set_no": 999,
        "meta_rev_at_epoch": 96870,
        "meta_bstar": 0.00053688757,
        "meta_mean_motion_dot": 8.75e-06,
        "meta_mean_motion_ddot": 0,
        "tle_line1": "1 29913U 99025HK  25339.99100109  .00000875  00000+0  53689-3 0  9993",
        "tle_line2": "2 29913  98.7873 339.0283 0061954 290.7499 124.3888 14.07370617968701"
      },
      "geometry": {
        "type": "Point",
        "coordinates": [
          -5.475147158192722,
          -58.965205112710045
        ]
      }
    }
  ]
}